{"type": "FeatureCollection", "features": [ {"type": "Feature", "properties": {"norad_id": 43683, "name": "BEIDOU-3 G1 (C59)", "group": "gnss", "lat": 0.5562252183077896, "lon": -89.72489944924374, "alt_km": 35787.51433951952, "timestamp": "2025-12-04T03:47:54.789035+00:00", "meta": {"OBJECT_NAME": "BEIDOU-3 G1 (C59)", "OBJECT_ID": "2018-085A", "EPOCH": "2025-12-03T19:33:27.900864", "MEAN_MOTION": 1.00273498, "ECCENTRICITY": 0.0002037, "INCLINATION": 2.5836, "RA_OF_ASC_NODE": 103.2315, "ARG_OF_PERICENTER": 63.7689, "MEAN_ANOMALY": 339.3049, "EPHEMERIS_TYPE": 0, "CLASSIFICATION_TYPE": "U", "NORAD_CAT_ID": 43683, "ELEMENT_SET_NO": 999, "REV_AT_EPOCH": 2610, "BSTAR": 0, "MEAN_MOTION_DOT": -2.6e-06, "MEAN_MOTION_DDOT": 0}, "tle": {"line1": "1 43683U 18085A   25337.81490626 -.00000260  00000+0  00000+0 0  9999", "line2": "2 43683   2.5836 103.2315 0002037  63.7689 339.3049  1.00273498 26100"}}, "geometry": {"type": "Point", "coordinates": [-89.72489944924374, 0.5562252183077896]}}, {"type": "Feature", "properties": {"norad_id": 43687, "name": "COSMOS 2529 (757)", "group": "gnss", "lat": 31.358039956160997, "lon": 2.113628852429112, "alt_km": 19132.585633867388, "timestamp": "2025-12-04T03:47:54.789049+00:00", "meta": {"OBJECT_NAME": "COSMOS 2529 (757)", "OBJECT_ID": "2018-086A", "EPOCH": "2025-12-03T00:44:36.468960", "MEAN_MOTION": 2.13101888, "ECCENTRICITY": 0.0007293, "INCLINATION": 64.2917, "RA_OF_ASC_NODE": 199.2166, "ARG_OF_PERICENTER": 254.4618, "MEAN_ANOMALY": 105.5545, "EPHEMERIS_TYPE": 0, "CLASSIFICATION_TYPE": "U", "NORAD_CAT_ID": 43687, "ELEMENT_SET_NO": 999, "REV_AT_EPOCH": 5510, "BSTAR": 0, "MEAN_MOTION_DOT": 1.06e-06, "MEAN_MOTION_DDOT": 0}, "tle": {"line1": "1 43687U 18086A   25337.03097765  .00000106  00000+0  00000+0 0  9993", "line2": "2 43687  64.2917 199.2166 0007293 254.4618 105.5545  2.13101888 55102"}}, "geometry": {"type": "Point", "coordinates": [2.113628852429112, 31.358039956160997]}}, {"type": "Feature", "properties": {"norad_id": 43706, "name": "BEIDOU-3 M17 (C36)", "group": "gnss", "lat": -16.940474662381664, "lon": 21.63541722463627, "alt_km": 21535.364162915186, "timestamp": "2025-12-04T03:47:54.789060+00:00", "meta": {"OBJECT_NAME": "BEIDOU-3 M17 (C36)", "OBJECT_ID": "2018-093A", "EPOCH": "2025-12-03T14:10:37.280064", "MEAN_MOTION": 1.86228161, "ECCENTRICITY": 0.0006346, "INCLINATION": 54.1727, "RA_OF_ASC_NODE": 188.9327, "ARG_OF_PERICENTER": 306.3477, "MEAN_ANOMALY": 234.3147, "EPHEMERIS_TYPE": 0, "CLASSIFICATION_TYPE": "U", "NORAD_CAT_ID": 43706, "ELEMENT_SET_NO": 999, "REV_AT_EPOCH": 4789, "BSTAR": 0, "MEAN_MOTION_DOT": 1.14e-06, "MEAN_MOTION_DDOT": 0}, "tle": {"line1": "1 43706U 18093A   25337.59070926  .00000114  00000+0  00000+0 0  9993", "line2": "2 43706  54.1727 188.9327 0006346 306.3477 234.3147  1.86228161 47892"}}, "geometry": {"type": "Point", "coordinates": [21.63541722463627, -16.940474662381664]}}, {"type": "Feature", "properties": {"norad_id": 43707, "name": "BEIDOU-3 M18 (C37)", "group": "gnss", "lat": -47.78091269658429, "lon": 136.14254304712213, "alt_km": 21524.210884107906, "timestamp": "2025-12-04T03:47:54.789071+00:00", "meta": {"OBJECT_NAME": "BEIDOU-3 M18 (C37)", "OBJECT_ID": "2018-093B", "EPOCH": "2025-12-02T02:36:40.524768", "MEAN_MOTION": 1.86226401, "ECCENTRICITY": 0.00063572, "INCLINATION": 54.1734, "RA_OF_ASC_NODE": 188.975, "ARG_OF_PERICENTER": 350.835, "MEAN_ANOMALY": 9.249, "EPHEMERIS_TYPE": 0, "CLASSIFICATION_TYPE": "U", "NORAD_CAT_ID": 43707, "ELEMENT_SET_NO": 999, "REV_AT_EPOCH": 4786, "BSTAR": 0, "MEAN_MOTION_DOT": 1.21e-06, "MEAN_MOTION_DDOT": 0}, "tle": {"line1": "1 43707U 18093B   25336.10880237  .00000121  00000+0  00000+0 0  9992", "line2": "2 43707  54.1734 188.9750 0006357 350.8350   9.2490  1.86226401 47869"}}, "geometry": {"type": "Point", "coordinates": [136.14254304712213, -47.78091269658429]}}, {"type": "Feature", "properties": {"norad_id": 43873, "name": "GPS BIII-1  (PRN 04)", "group": "gnss", "lat": 49.48763673628602, "lon": 153.2245508971588, "alt_km": 20236.86519148093, "timestamp": "2025-12-04T03:47:54.789084+00:00", "meta": {"OBJECT_NAME": "GPS BIII-1  (PRN 04)", "OBJECT_ID": "2018-109A", "EPOCH": "2025-12-02T13:53:48.865056", "MEAN_MOTION": 2.00553145, "ECCENTRICITY": 0.00371805, "INCLINATION": 55.5613, "RA_OF_ASC_NODE": 99.9484, "ARG_OF_PERICENTER": 194.5324, "MEAN_ANOMALY": 172.7169, "EPHEMERIS_TYPE": 0, "CLASSIFICATION_TYPE": "U", "NORAD_CAT_ID": 43873, "ELEMENT_SET_NO": 999, "REV_AT_EPOCH": 5113, "BSTAR": 0, "MEAN_MOTION_DOT": 1e-07, "MEAN_MOTION_DDOT": 0}, "tle": {"line1": "1 43873U 18109A   25336.57903779  .00000010  00000+0  00000+0 0  9999", "line2": "2 43873  55.5613  99.9484 0037180 194.5324 172.7169  2.00553145 51130"}}, "geometry": {"type": "Point", "coordinates": [153.2245508971588, 49.48763673628602]}}, {"type": "Feature", "properties": {"norad_id": 44204, "name": "BEIDOU-3 IGSO-1 (C38)", "group": "gnss", "lat": -20.622805201634478, "lon": -126.9386352327658, "alt_km": 35686.72133948242, "timestamp": "2025-12-04T03:47:54.789098+00:00", "meta": {"OBJECT_NAME": "BEIDOU-3 IGSO-1 (C38)", "OBJECT_ID": "2019-023A", "EPOCH": "2025-11-19T14:15:02.708640", "MEAN_MOTION": 1.00252177, "ECCENTRICITY": 0.0026966, "INCLINATION": 58.4003, "RA_OF_ASC_NODE": 39.8168, "ARG_OF_PERICENTER": 221.2202, "MEAN_ANOMALY": 126.9723, "EPHEMERIS_TYPE": 0, "CLASSIFICATION_TYPE": "U", "NORAD_CAT_ID": 44204, "ELEMENT_SET_NO": 999, "REV_AT_EPOCH": 510, "BSTAR": 0, "MEAN_MOTION_DOT": -2.26e-06, "MEAN_MOTION_DDOT": 0}, "tle": {"line1": "1 44204U 19023A   25323.59378135 -.00000226  00000+0  00000+0 0  9994", "line2": "2 44204  58.4003  39.8168 0026966 221.2202 126.9723  1.00252177  5102"}}, "geometry": {"type": "Point", "coordinates": [-126.9386352327658, -20.622805201634478]}}, {"type": "Feature", "properties": {"norad_id": 44231, "name": "BEIDOU-2 G8 (C01)", "group": "gnss", "lat": -0.5804002356410677, "lon": -85.32147780042854, "alt_km": 35766.4372604865, "timestamp": "2025-12-04T03:47:54.789112+00:00", "meta": {"OBJECT_NAME": "BEIDOU-2 G8 (C01)", "OBJECT_ID": "2019-027A", "EPOCH": "2025-12-03T19:34:50.268576", "MEAN_MOTION": 1.00270041, "ECCENTRICITY": 0.0008345, "INCLINATION": 1.6376, "RA_OF_ASC_NODE": 74.7006, "ARG_OF_PERICENTER": 254.7758, "MEAN_ANOMALY": 181.7028, "EPHEMERIS_TYPE": 0, "CLASSIFICATION_TYPE": "U", "NORAD_CAT_ID": 44231, "ELEMENT_SET_NO": 999, "REV_AT_EPOCH": 2412, "BSTAR": 0, "MEAN_MOTION_DOT": -2.3e-06, "MEAN_MOTION_DDOT": 0}, "tle": {"line1": "1 44231U 19027A   25337.81585959 -.00000230  00000+0  00000+0 0  9997", "line2": "2 44231   1.6376  74.7006 0008345 254.7758 181.7028  1.00270041 24122"}}, "geometry": {"type": "Point", "coordinates": [-85.32147780042854, -0.5804002356410677]}}, {"type": "Feature", "properties": {"norad_id": 44299, "name": "COSMOS 2534 (758)", "group": "gnss", "lat": -62.86969390757661, "lon": 129.6542836291651, "alt_km": 19113.247887807178, "timestamp": "2025-12-04T03:47:54.789123+00:00", "meta": {"OBJECT_NAME": "COSMOS 2534 (758)", "OBJECT_ID": "2019-030A", "EPOCH": "2025-12-01T03:07:57.438624", "MEAN_MOTION": 2.1310195, "ECCENTRICITY": 0.00091167, "INCLINATION": 64.3652, "RA_OF_ASC_NODE": 199.2842, "ARG_OF_PERICENTER": 283.4428, "MEAN_ANOMALY": 193.0266, "EPHEMERIS_TYPE": 0, "CLASSIFICATION_TYPE": "U", "NORAD_CAT_ID": 44299, "ELEMENT_SET_NO": 999, "REV_AT_EPOCH": 5070, "BSTAR": 0, "MEAN_MOTION_DOT": 9.9e-07, "MEAN_MOTION_DDOT": 0}, "tle": {"line1": "1 44299U 19030A   25335.13052591  .00000099  00000+0  00000+0 0  9991", "line2": "2 44299  64.3652 199.2842 0009116 283.4428 193.0266  2.13101950 50700"}}, "geometry": {"type": "Point", "coordinates": [129.6542836291651, -62.86969390757661]}}, {"type": "Feature", "properties": {"norad_id": 44337, "name": "BEIDOU-3 IGSO-2 (C39)", "group": "gnss", "lat": 55.137870784130534, "lon": -111.60546077482933, "alt_km": 35842.822818536784, "timestamp": "2025-12-04T03:47:54.789137+00:00", "meta": {"OBJECT_NAME": "BEIDOU-3 IGSO-2 (C39)", "OBJECT_ID": "2019-035A", "EPOCH": "2025-12-01T05:17:49.661952", "MEAN_MOTION": 1.00274502, "ECCENTRICITY": 0.00376064, "INCLINATION": 55.2223, "RA_OF_ASC_NODE": 160.6035, "ARG_OF_PERICENTER": 202.2564, "MEAN_ANOMALY": 266.4761, "EPHEMERIS_TYPE": 0, "CLASSIFICATION_TYPE": "U", "NORAD_CAT_ID": 44337, "ELEMENT_SET_NO": 999, "REV_AT_EPOCH": 2368, "BSTAR": 0, "MEAN_MOTION_DOT": -2.5e-07, "MEAN_MOTION_DDOT": 0}, "tle": {"line1": "1 44337U 19035A   25335.22071368 -.00000025  00000+0  00000+0 0  9992", "line2": "2 44337  55.2223 160.6035 0037606 202.2564 266.4761  1.00274502 23688"}}, "geometry": {"type": "Point", "coordinates": [-111.60546077482933, 55.137870784130534]}}, {"type": "Feature", "properties": {"norad_id": 44506, "name": "GPS BIII-2  (PRN 18)", "group": "gnss", "lat": -28.588312100717413, "lon": -42.92636514171404, "alt_km": 20275.45450850086, "timestamp": "2025-12-04T03:47:54.789149+00:00", "meta": {"OBJECT_NAME": "GPS BIII-2  (PRN 18)", "OBJECT_ID": "2019-056A", "EPOCH": "2025-12-02T10:49:28.764768", "MEAN_MOTION": 2.00565569, "ECCENTRICITY": 0.00578163, "INCLINATION": 55.7251, "RA_OF_ASC_NODE": 338.9617, "ARG_OF_PERICENTER": 198.402, "MEAN_ANOMALY": 332.9603, "EPHEMERIS_TYPE": 0, "CLASSIFICATION_TYPE": "U", "NORAD_CAT_ID": 44506, "ELEMENT_SET_NO": 999, "REV_AT_EPOCH": 4612, "BSTAR": 0, "MEAN_MOTION_DOT": -6.1e-07, "MEAN_MOTION_DDOT": 0}, "tle": {"line1": "1 44506U 19056A   25336.45102737 -.00000061  00000+0  00000+0 0  9994", "line2": "2 44506  55.7251 338.9617 0057816 198.4020 332.9603  2.00565569 46121"}}, "geometry": {"type": "Point", "coordinates": [-42.92636514171404, -28.588312100717413]}}]}